SL-14 R/B               
1 18749U 88001B   22027.49014934  .00000183  00000+0  19357-4 0  9993
2 18749  82.5158 165.6074 0019391 153.0769 275.3701 14.83308383819186
COSMOS 1933             
1 18958U 88020A   22027.10108758  .00001111  00000+0  77961-4 0  9999
2 18958  82.5292 277.0092 0010446 314.2650  45.7718 15.04174583823557
SL-3 R/B                
1 19046U 88032B   22027.55812115  .00001571  00000+0  11881-3 0  9997
2 19046  97.3890  32.8146 0036846   1.2056 358.9252 15.03208825825444
SL-16 R/B               
1 19120U 88039B   22027.34883587 -.00000125  00000+0 -36490-4 0  9995
2 19120  71.0160   4.1383 0020023 128.2532 232.0399 14.19231858745207
COSMOS 1953             
1 19210U 88050A   22027.57186716  .00000794  00000+0  51572-4 0  9991
2 19210  82.5164 197.7504 0011781 263.0739  96.9148 15.06633623810340
SL-8 R/B                
1 19257U 88053B   22027.34181837  .00000028  00000+0  18212-4 0  9993
2 19257  74.0498 358.1030 0020843 194.9683 271.4597 14.37549440760622
COSMOS 1975             
1 19573U 88093A   22027.37803361  .00000923  00000+0  62048-4 0  9994
2 19573  82.5218 153.5238 0012896 317.3910  42.6315 15.05538796792053
SL-14 R/B               
1 19574U 88093B   22027.40008870  .00000193  00000+0  20505-4 0  9992
2 19574  82.5323   9.2916 0020621 323.4236 188.0603 14.83419501778174
SL-16 R/B               
1 19650U 88102B   22027.51397284  .00000234  00000+0  14332-3 0  9996
2 19650  70.9993  71.2210 0012928 145.5109 214.6855 14.15816104714251
INTERCOSMOS 24          
1 20261U 89080A   22027.48666114  .00000223  00000+0  60204-4 0  9997
2 20261  82.6043 359.0207 1202278 168.4824 194.6639 12.56260360477958
SL-14 R/B               
1 20262U 89080C   22027.52412730  .00000151  00000+0  40200-4 0  9990
2 20262  82.5910  56.5930 1236919  14.0227 349.2147 12.49009645472524
DELTA 2 R/B(1)          
1 20303U 89085B   22027.33947664  .00008006  00000+0  23086-3 0  9998
2 20303  35.6394 262.4480 0087574  24.4449 336.0398 15.31261748758789
DELTA 1 R/B             
1 20323U 89089B   22027.15827081  .00000118  00000+0  39642-4 0  9996
2 20323  97.1036  91.4092 0071772 178.0550 182.0940 14.48452708678089
ARIANE 40 R/B           
1 20443U 90005H   22027.11858435  .00000037  00000+0  26490-4 0  9999
2 20443  98.5027  96.4885 0010862  33.6465 326.5409 14.38169733676722
DELTA 2 R/B(1)          
1 20453U 90008B   22027.44321572  .00002202  00000+0  12036-3 0  9992
2 20453  35.6258  18.6266 0273547 188.3849 171.2234 14.87603442698881
COSMOS 2058             
1 20465U 90010A   22027.52991916  .00000649  00000+0  51968-4 0  9993
2 20465  82.4871  66.3523 0015758  20.9235 339.2630 14.98451789716524
SL-14 R/B               
1 20466U 90010B   22027.59939519  .00000146  00000+0  15626-4 0  9995
2 20466  82.5009 235.3851 0019945 198.1279 161.9226 14.81468653705955
SL-14 R/B               
1 20511U 90018B   22027.51084010  .00000152  00000+0  16924-4 0  9992
2 20511  82.5235 184.4924 0017136 350.9086  71.2050 14.80121462700244
HST                     
1 20580U 90037B   22027.34499171  .00001293  00000+0  66739-4 0  9994
2 20580  28.4714  23.3526 0002386 318.2531 144.7976 15.09972652544867
SL-16 R/B               
1 20625U 90046B   22027.58305730 -.00000222  00000+0 -90729-4 0  9996
2 20625  70.9977 211.6170 0012043  61.9995 298.2344 14.14682814635930
COSMOS 2084             
1 20663U 90055A   22027.35380789  .00000519  00000+0  63711-4 0  9998
2 20663  62.7944   1.3650 0102104  34.8317 325.9403 14.92448829711231
SL-6 R/B(2)             
1 20666U 90055D   22027.10653772  .00000533  00000+0  62427-4 0  9998
2 20666  62.7839 277.1023 0121712  58.4502 302.8409 14.92722222713153
SL-8 R/B                
1 20775U 90078B   22027.12487696  .00007402  00000+0  35201-3 0  9997
2 20775  82.9254 100.2435 0561783 167.4716 194.1143 14.37404919590201
SL-8 R/B                
1 21088U 91006B   22027.61063536 -.00000051  00000+0 -67009-4 0  9991
2 21088  82.9415 207.1702 0021451 282.3251 144.5991 13.77188512557301
OKEAN-3                 
1 21397U 91039A   22027.33041944  .00000701  00000+0  64303-4 0  9992
2 21397  82.5236 336.8115 0017882   3.9294 356.2064 14.93308799640111
COSMOS 2151             
1 21422U 91042A   22027.60416349  .00000417  00000+0  38161-4 0  9997
2 21422  82.4991  81.9519 0015533  67.5607 292.7256 14.92404084638676
SL-14 R/B               
1 21423U 91042B   22027.54381483  .00000163  00000+0  18454-4 0  9992
2 21423  82.4942 186.3011 0018769 126.5623 233.7321 14.79870852630785
ERS-1                   
1 21574U 91050A   22027.50544249  .00000103  00000+0  49062-4 0  9998
2 21574  98.6796 354.7613 0032623 338.4702  21.5110 14.37853169599761
ARIANE 40 R/B           
1 21610U 91050F   22027.11189007  .00000052  00000+0  29680-4 0  9990
2 21610  98.3993  99.2710 0002131 299.5536 117.4720 14.40995572602474
INTERCOSMOS 25          
1 21819U 91086A   22027.54961503  .00000227  00000+0  37830-4 0  9996
2 21819  82.5799 133.2524 1515303  96.4124 281.1078 12.05470028315259
SL-8 R/B                
1 21876U 92008B   22027.53413479  .00000030  00000+0  15068-4 0  9998
2 21876  82.9284 304.5684 0035199  11.4961 161.3246 13.75696023502864
SL-8 R/B                
1 21938U 92020B   22027.54464301  .00000148  00000+0  13779-3 0  9998
2 21938  82.9305 189.2040 0029555 167.7975 255.9416 13.75299562494642
COSMOS 2219             
1 22219U 92076A   22027.07922761  .00000289  00000+0  17772-3 0  9992
2 22219  71.0604 278.0539 0019088 330.2772  29.7264 14.13680061505998
SL-16 R/B               
1 22220U 92076B   22027.54186396 -.00000153  00000+0 -52711-4 0  9997
2 22220  71.0010 111.5029 0014719 231.6697 220.2079 14.16484714509099
COSMOS 2221             
1 22236U 92080A   22027.55085503  .00000398  00000+0  40397-4 0  9994
2 22236  82.5068 266.9132 0016891 160.9705 199.2148 14.88212651556871
SL-16 R/B               
1 22285U 92093B   22027.14559575  .00000189  00000+0  12195-3 0  9994
2 22285  71.0215 277.4691 0002093  66.0770 294.0572 14.15075136500572
COSMOS 2228             
1 22286U 92094A   22027.54996893  .00000485  00000+0  49497-4 0  9993
2 22286  82.5181 223.8542 0019633 285.4305  74.4744 14.88435453552065
SL-16 R/B               
1 22566U 93016B   22027.56045612 -.00000303  00000+0 -13197-3 0  9993
2 22566  71.0083 129.1488 0007820  88.8283 271.3736 14.14990275489663
COSMOS 2242             
1 22626U 93024A   22027.58669964  .00000427  00000+0  43511-4 0  9992
2 22626  82.5198 252.1954 0017433 286.0808  73.8490 14.88281395556456
SL-16 R/B               
1 22803U 93059B   22027.49640192  .00000227  00000+0  13722-3 0  9997
2 22803  70.9909 297.8841 0018177 332.0256  27.9889 14.16849932466731
ARIANE 40 R/B           
1 22830U 93061H   22027.40157210  .00000011  00000+0  20770-4 0  9998
2 22830  98.6848  90.3761 0011436  39.2361 320.9649 14.31509669479080
COSMOS 2278             
1 23087U 94023A   22027.53621253  .00000080  00000+0  66992-4 0  9991
2 23087  71.0523  76.3369 0008801 176.5374 183.5811 14.13839765432456
SL-16 R/B               
1 23088U 94023B   22027.32847080  .00000095  00000+0  74181-4 0  9992
2 23088  71.0021 345.0944 0001765  16.3126 343.8053 14.14703787433593
SL-16 R/B               
1 23343U 94074B   22027.39889233  .00000100  00000+0  21407-4 0  9995
2 23343  97.9159  83.2211 0008014  58.6481 311.9503 14.76940699465348
SL-16 R/B               
1 23405U 94077B   22027.11441941 -.00000175  00000+0 -65517-4 0  9991
2 23405  70.9827 272.6998 0005071 278.9175  81.1374 14.15251410403627
ERS-2                   
1 23560U 95021A   22027.56856735  .00003137  00000+0  12966-3 0  9991
2 23560  98.5214 273.6084 0002885 346.6012  13.5145 15.24920049431836
ARIANE 40+ R/B          
1 23561U 95021B   22027.17002065  .00000075  00000+0  39697-4 0  9997
2 23561  98.6452  83.7836 0006038 311.8816 110.3878 14.38080510403187
SL-16 R/B               
1 23705U 95058B   22027.53616290 -.00000275  00000+0 -11696-3 0  9990
2 23705  71.0226  92.9654 0014951 252.7799 107.1688 14.15163755355319
SL-16 R/B               
1 24298U 96051B   22027.51999422 -.00000084  00000+0 -18794-4 0  9996
2 24298  70.8200 108.2207 0018122 206.7716 153.2470 14.12402510309539
ORBVIEW 2 (SEASTAR)     
1 24883U 97037A   22027.32309858  .00000104  00000+0  53746-4 0  9995
2 24883  98.6622 150.4053 0002883 147.1647 212.9717 14.33668440293089
SL-16 R/B               
1 25400U 98043G   22027.55450649 -.00000001  00000+0  17907-4 0  9995
2 25400  98.6618 325.3105 0010892  61.9670 298.2610 14.25494134224945
SL-16 R/B               
1 25407U 98045B   22027.56770525 -.00000062  00000+0 -71495-5 0  9994
2 25407  71.0120  99.4706 0006813 174.5122 185.6077 14.15851624214464
ISS (ZARYA)             
1 25544U 98067A   22027.75547926  .00007563  00000+0  14194-3 0  9990
2 25544  51.6451 312.0370 0006903  67.9238  24.2396 15.49669141323407
CZ-4B R/B               
1 25732U 99025C   22027.58646329 -.00000027  00000+0  88166-5 0  9993
2 25732  98.8756  69.2223 0036799 331.3389 142.6969 14.17711681175290
OKEAN-O                 
1 25860U 99039A   22027.53289087  .00000174  00000+0  32325-4 0  9996
2 25860  98.1591  66.0434 0001713 106.2822 253.8576 14.76816934212451
SL-16 R/B               
1 25861U 99039B   22027.55923441  .00000144  00000+0  27057-4 0  9991
2 25861  98.1925  52.1285 0016817  67.7034  83.4627 14.78709722214678
DELTA 2 R/B             
1 25876U 99041E   22027.60724038  .00000454  00000+0  11604-3 0  9991
2 25876  51.7675 144.0846 0530203 262.6793  91.3607 14.04735703151429
HELIOS 1B               
1 25977U 99064A   22027.49579161  .00000211  00000+0  33341-4 0  9994
2 25977  98.3211 215.9921 0000493 168.2571 191.8652 14.82641618462398
TERRA                   
1 25994U 99068A   22027.49816183  .00000113  00000+0  35099-4 0  9998
2 25994  98.1538 102.5502 0001260  91.1498 325.3669 14.57135841175973
